{"type": "FeatureCollection", "features": [ {"type": "Feature", "properties": {"norad_id": 64901, "name": "CO3D 4", "group": "resource", "lat": 58.45160805050197, "lon": -108.31754796689819, "alt_km": 499.75108372092836, "timestamp": "2025-12-08T23:34:03.627632+00:00", "meta": {"OBJECT_NAME": "CO3D 4", "OBJECT_ID": "2025-156C", "EPOCH": "2025-12-08T13:33:36.148608", "MEAN_MOTION": 15.20197844, "ECCENTRICITY": 0.0001048, "INCLINATION": 97.4341, "RA_OF_ASC_NODE": 58.9924, "ARG_OF_PERICENTER": 223.0496, "MEAN_ANOMALY": 137.0658, "EPHEMERIS_TYPE": 0, "CLASSIFICATION_TYPE": "U", "NORAD_CAT_ID": 64901, "ELEMENT_SET_NO": 999, "REV_AT_EPOCH": 2057, "BSTAR": 0.00044793999, "MEAN_MOTION_DOT": 9.641e-05, "MEAN_MOTION_DDOT": 0}, "tle": {"line1": "1 64901U 25156C   25342.56500172  .00009641  00000+0  44794-3 0  9991", "line2": "2 64901  97.4341  58.9924 0001048 223.0496 137.0658 15.20197844 20571"}}, "geometry": {"type": "Point", "coordinates": [-108.31754796689819, 58.45160805050197]}}, {"type": "Feature", "properties": {"norad_id": 64902, "name": "CO3D 2", "group": "resource", "lat": -56.2656126772939, "lon": 70.57841083907746, "alt_km": 512.885364366497, "timestamp": "2025-12-08T23:34:03.627642+00:00", "meta": {"OBJECT_NAME": "CO3D 2", "OBJECT_ID": "2025-156D", "EPOCH": "2025-12-08T14:20:22.410240", "MEAN_MOTION": 15.20200015, "ECCENTRICITY": 9.608e-05, "INCLINATION": 97.4346, "RA_OF_ASC_NODE": 58.9228, "ARG_OF_PERICENTER": 89.9265, "MEAN_ANOMALY": 270.208, "EPHEMERIS_TYPE": 0, "CLASSIFICATION_TYPE": "U", "NORAD_CAT_ID": 64902, "ELEMENT_SET_NO": 999, "REV_AT_EPOCH": 2057, "BSTAR": 3.0136186e-05, "MEAN_MOTION_DOT": 5.85e-06, "MEAN_MOTION_DDOT": 0}, "tle": {"line1": "1 64902U 25156D   25342.59748160  .00000585  00000+0  30136-4 0  9990", "line2": "2 64902  97.4346  58.9228 0000960  89.9265 270.2080 15.20200015 20573"}}, "geometry": {"type": "Point", "coordinates": [70.57841083907746, -56.2656126772939]}}, {"type": "Feature", "properties": {"norad_id": 64903, "name": "CO3D 1", "group": "resource", "lat": -57.08117814853867, "lon": 70.93780411254835, "alt_km": 512.949446211257, "timestamp": "2025-12-08T23:34:03.627652+00:00", "meta": {"OBJECT_NAME": "CO3D 1", "OBJECT_ID": "2025-156E", "EPOCH": "2025-12-08T19:04:56.990784", "MEAN_MOTION": 15.20198157, "ECCENTRICITY": 9.52e-05, "INCLINATION": 97.4342, "RA_OF_ASC_NODE": 59.1176, "ARG_OF_PERICENTER": 98.013, "MEAN_ANOMALY": 262.1214, "EPHEMERIS_TYPE": 0, "CLASSIFICATION_TYPE": "U", "NORAD_CAT_ID": 64903, "ELEMENT_SET_NO": 999, "REV_AT_EPOCH": 2060, "BSTAR": 0.00040129, "MEAN_MOTION_DOT": 8.628e-05, "MEAN_MOTION_DDOT": 0}, "tle": {"line1": "1 64903U 25156E   25342.79510406  .00008628  00000+0  40129-3 0  9991", "line2": "2 64903  97.4342  59.1176 0000952  98.0130 262.1214 15.20198157 20604"}}, "geometry": {"type": "Point", "coordinates": [70.93780411254835, -57.08117814853867]}}, {"type": "Feature", "properties": {"norad_id": 66514, "name": "SENTINEL-6B", "group": "resource", "lat": 33.5035465723084, "lon": -172.6267747261268, "alt_km": 1332.4156466685836, "timestamp": "2025-12-08T23:34:03.627662+00:00", "meta": {"OBJECT_NAME": "SENTINEL-6B", "OBJECT_ID": "2025-264A", "EPOCH": "2025-12-08T14:01:41.053152", "MEAN_MOTION": 12.84032003, "ECCENTRICITY": 0.00210395, "INCLINATION": 66.0385, "RA_OF_ASC_NODE": 171.0841, "ARG_OF_PERICENTER": 268.3306, "MEAN_ANOMALY": 91.5301, "EPHEMERIS_TYPE": 0, "CLASSIFICATION_TYPE": "U", "NORAD_CAT_ID": 66514, "ELEMENT_SET_NO": 999, "REV_AT_EPOCH": 275, "BSTAR": 0.00011898365, "MEAN_MOTION_DOT": -3.3e-07, "MEAN_MOTION_DDOT": 0}, "tle": {"line1": "1 66514U 25264A   25342.58450293 -.00000033  00000+0  11898-3 0  9999", "line2": "2 66514  66.0385 171.0841 0021039 268.3306  91.5301 12.84032003  2753"}}, "geometry": {"type": "Point", "coordinates": [-172.6267747261268, 33.5035465723084]}}]}